     2.100          NAVIGATION                              RINEX VERSION / TYPE
fic2rin                                 01/21/2016 00:04:13 PGM / RUN BY / DATE
                                                            END OF HEADER
 9 16  1 20 20  0  0.0  .539850443602D-04  .784439180279D-11  .000000000000D+00
     .800000000000D+02  .950000000000D+01  .471591072233D-08 -.255302751084D+01
     .512227416039D-06  .612918171100D-03  .100452452898D-04  .515365310669D+04
     .331200000000D+06  .167638063431D-07  .217758419157D+01  .279396772385D-07
     .955561271671D+00  .186062500000D+03  .190317443335D+01 -.795997442203D-08
    -.450018745087D-09  .100000000000D+01  .188000000000D+04  .000000000000D+00
     .240000000000D+01  .000000000000D+00  .139698386192D-08  .800000000000D+02
     .324006000000D+06  .400000000000D+01
10 16  1 20 20  0  0.0  .492227263749D-04 -.909494701773D-12  .000000000000D+00
     .700000000000D+01 -.128125000000D+01  .503449542123D-08 -.466404276799D+00
    -.707805156708D-07  .104735605419D-02  .541470944881D-05  .515367423820D+04
     .331200000000D+06  .558793544769D-08  .113236928448D+01  .167638063431D-07
     .959180078957D+00  .273718750000D+03 -.294094145333D+01 -.822319967213D-08
     .939324840936D-10  .100000000000D+01  .188000000000D+04  .000000000000D+00
     .240000000000D+01  .000000000000D+00  .232830643654D-08  .700000000000D+01
     .324006000000D+06  .400000000000D+01
11 16  1 20 20  0  0.0 -.628256238997D-03 -.193267624127D-11  .000000000000D+00
     .410000000000D+02 -.527500000000D+02  .584310053145D-08  .103585118686D+01
    -.284239649773D-05  .162260385696D-01  .105798244476D-04  .515365392113D+04
     .331200000000D+06 -.283122062683D-06 -.272123408907D+00 -.208616256714D-06
     .895779513498D+00  .144906250000D+03  .149555533543D+01 -.884608276057D-08
     .330013746397D-09  .100000000000D+01  .188000000000D+04  .000000000000D+00
     .240000000000D+01  .000000000000D+00 -.121071934700D-07  .410000000000D+02
     .324006000000D+06  .400000000000D+01
12 16  1 20 20  0  0.0  .362364109606D-03  .272848410532D-11  .000000000000D+00
     .710000000000D+02 -.471875000000D+01  .417945980556D-08  .552316374880D+00
    -.271946191788D-06  .573754892685D-02  .116974115372D-05  .515354164886D+04
     .331200000000D+06 -.558793544769D-07 -.195508166630D+01  .147148966789D-06
     .990103311537D+00  .371468750000D+03  .642045499795D+00 -.830070290045D-08
    -.146077513286D-09  .100000000000D+01  .188000000000D+04  .000000000000D+00
     .240000000000D+01  .000000000000D+00 -.121071934700D-07  .710000000000D+02
     .324006000000D+06  .400000000000D+01
13 16  1 20 20  0  0.0 -.179793685675D-03 -.261479726760D-11  .000000000000D+00
     .460000000000D+02  .330312500000D+02  .415553023737D-08  .186709188223D+01
     .162236392498D-05  .467652129009D-02  .113099813461D-04  .515368765640D+04
     .331200000000D+06  .745058059692D-07  .229634895757D+01 -.502914190292D-07
     .972168509349D+00  .166468750000D+03  .199158072629D+01 -.764924719328D-08
    -.530379235281D-09  .100000000000D+01  .188000000000D+04  .000000000000D+00
     .240000000000D+01  .000000000000D+00 -.111758708954D-07  .460000000000D+02
     .324006000000D+06  .400000000000D+01
14 16  1 20 20  0  0.0  .800238922238D-05 -.227373675443D-11  .000000000000D+00
     .380000000000D+02  .106562500000D+02  .433589489314D-08 -.257497977427D+01
     .674277544022D-06  .829227396753D-02  .111702829599D-04  .515371594048D+04
     .331200000000D+06  .856816768646D-07  .226014401726D+01 -.260770320892D-07
     .964626727775D+00  .163812500000D+03 -.195115252874D+01 -.767031949960D-08
    -.470376735936D-09  .100000000000D+01  .188000000000D+04  .000000000000D+00
     .240000000000D+01  .000000000000D+00 -.931322574615D-08  .380000000000D+02
     .324006000000D+06  .400000000000D+01
15 16  1 20 20  0  0.0 -.293217133731D-03 -.181898940355D-11  .000000000000D+00
     .500000000000D+01 -.134375000000D+01  .523843248745D-08  .291089829764D+01
    -.113621354103D-06  .801874825265D-02  .105910003185D-04  .515378550529D+04
     .331200000000D+06 -.838190317154D-07  .212816204681D+01 -.121071934700D-06
     .931296929124D+00  .159312500000D+03  .473458513127D+00 -.809748014969D-08
    -.578952687132D-09  .100000000000D+01  .188000000000D+04  .000000000000D+00
     .240000000000D+01  .000000000000D+00 -.107102096081D-07  .500000000000D+01
     .324006000000D+06  .400000000000D+01
16 16  1 20 20  0  0.0 -.466727651656D-04  .329691829393D-11  .000000000000D+00
     .110000000000D+03 -.108125000000D+02  .400695261995D-08 -.153718848301D+01
    -.597909092903D-06  .842665438540D-02  .144541263580D-05  .515369157410D+04
     .331200000000D+06  .484287738800D-07 -.193632246150D+01 -.137835741043D-06
     .990617344377D+00  .367125000000D+03  .316243150031D+00 -.807605068564D-08
     .000000000000D+00  .100000000000D+01  .188000000000D+04  .000000000000D+00
     .240000000000D+01  .000000000000D+00 -.102445483208D-07  .110000000000D+03
     .324006000000D+06  .400000000000D+01
17 16  1 20 20  0  0.0 -.199163332582D-03 -.795807864051D-12  .000000000000D+00
     .600000000000D+02 -.127250000000D+03  .383694553847D-08 -.251282942591D+01
    -.652857124805D-05  .109376149485D-01  .881031155586D-05  .515363441467D+04
     .331200000000D+06  .912696123123D-07 -.912591280290D+00 -.726431608200D-07
     .975064074807D+00  .214875000000D+03 -.196282352094D+01 -.761746015493D-08
    -.564309220030D-10  .100000000000D+01  .188000000000D+04  .000000000000D+00
     .240000000000D+01  .000000000000D+00 -.107102096081D-07  .600000000000D+02
     .324006000000D+06  .400000000000D+01
18 16  1 20 20  0  0.0  .475072301924D-03  .386535248253D-11  .000000000000D+00
     .187000000000D+03  .487500000000D+01  .596560563428D-08 -.960685639636D+00
     .594183802605D-06  .165339736268D-01  .522471964359D-05  .515364430237D+04
     .331200000000D+06 -.763684511185D-07  .110795019007D+01  .376254320145D-06
     .924675062622D+00  .261656250000D+03 -.191801249543D+01 -.886679790915D-08
     .102504269714D-09  .100000000000D+01  .188000000000D+04  .000000000000D+00
     .240000000000D+01  .000000000000D+00 -.111758708954D-07  .187000000000D+03
     .324006000000D+06  .400000000000D+01
19 16  1 20 20  0  0.0 -.524520408362D-03 -.113686837722D-12  .000000000000D+00
     .590000000000D+02 -.114218750000D+03  .398623747136D-08  .105534678512D+01
    -.578351318836D-05  .112840664806D-01  .926665961742D-05  .515519644547D+04
     .331200000000D+06 -.186264514923D-06 -.863519494173D+00  .447034835815D-07
     .972174412224D+00  .211343750000D+03  .672692689974D+00 -.789282876800D-08
    -.231438211759D-09  .100000000000D+01  .188000000000D+04  .000000000000D+00
     .240000000000D+01  .000000000000D+00 -.153668224812D-07  .590000000000D+02
     .324006000000D+06  .400000000000D+01
20 16  1 20 20  0  0.0  .387100037187D-03  .272848410532D-11  .000000000000D+00
     .510000000000D+02  .418750000000D+01  .583524306130D-08  .302634646158D+01
     .689178705215D-07  .495893589687D-02  .512786209583D-05  .515367628479D+04
     .331200000000D+06  .689178705215D-07  .105593384829D+01 -.726431608200D-07
     .925952643610D+00  .261406250000D+03  .131930624656D+01 -.856642825469D-08
     .128576784311D-09  .100000000000D+01  .188000000000D+04  .000000000000D+00
     .240000000000D+01  .000000000000D+00 -.838190317154D-08  .510000000000D+02
     .324006000000D+06  .400000000000D+01
21 16  1 20 20  0  0.0 -.506261829287D-03 -.204636307899D-11  .000000000000D+00
     .350000000000D+02 -.120625000000D+02  .512021327744D-08 -.777056894167D-01
    -.497326254845D-06  .229673966533D-01  .101681798697D-04  .515368157005D+04
     .331200000000D+06 -.279396772385D-06  .657571728788D-01  .247731804848D-06
     .935880697656D+00  .176937500000D+03 -.184007579662D+01 -.857821445992D-08
     .583952895411D-09  .100000000000D+01  .188000000000D+04  .000000000000D+00
     .240000000000D+01  .000000000000D+00 -.116415321827D-07  .350000000000D+02
     .324006000000D+06  .400000000000D+01
22 16  1 20 20  0  0.0  .408850144595D-03 -.488853402203D-11  .000000000000D+00
     .300000000000D+02  .312500000000D-01  .582952853755D-08 -.189741468934D+01
    -.130385160446D-07  .757000595331D-02  .455416738987D-05  .515509148598D+04
     .331200000000D+06  .126659870148D-06  .110873516704D+01  .298023223877D-07
     .922521928090D+00  .266406250000D+03 -.202730933462D+01 -.856499962376D-08
     .185007706314D-09  .100000000000D+01  .188000000000D+04  .000000000000D+00
     .240000000000D+01  .000000000000D+00 -.176951289177D-07  .300000000000D+02
     .324006000000D+06  .400000000000D+01
23 16  1 20 20  0  0.0 -.155948102474D-03 -.193267624127D-11  .000000000000D+00
     .870000000000D+02  .403125000000D+01  .482662961993D-08  .250398242883D+01
     .165775418282D-06  .104375163792D-01  .101048499346D-04  .515374315071D+04
     .331200000000D+06 -.149011611938D-06  .218400760153D+01 -.119209289551D-06
     .946529575328D+00  .180562500000D+03 -.261745294550D+01 -.794068790438D-08
    -.453947480163D-09  .100000000000D+01  .188000000000D+04  .000000000000D+00
     .240000000000D+01  .000000000000D+00 -.200234353542D-07  .870000000000D+02
     .324006000000D+06  .400000000000D+01
24 16  1 20 20  0  0.0 -.110692344606D-04 -.568434188608D-12  .000000000000D+00
     .420000000000D+02  .138843750000D+03  .466197990446D-08  .188996249687D+01
     .722147524357D-05  .412741280161D-02  .858865678310D-05  .515364607430D+04
     .331200000000D+06 -.372529029846D-07 -.307328096535D+01  .745058059692D-07
     .951264432576D+00  .208375000000D+03  .340156237170D+00 -.819319842246D-08
     .900037490174D-10  .100000000000D+01  .188000000000D+04  .000000000000D+00
     .240000000000D+01  .000000000000D+00  .232830643654D-08  .420000000000D+02
     .324006000000D+06  .400000000000D+01
